NORAD_CAT_ID,OBJECT_NAME,OBJECT_TYPE,EPOCH,MEAN_MOTION,ECCENTRICITY,INCLINATION,RA_OF_ASC_NODE,ARG_OF_PERICENTER,MEAN_ANOMALY,BSTAR,MEAN_MOTION_DOT,MEAN_MOTION_DDOT,TLE_LINE0,TLE_LINE1,TLE_LINE2,SEMIMAJOR_AXIS,PERIOD,APOGEE,PERIGEE,DECAYED
52618.0,STARLINK-3983,PAYLOAD,2024-06-11 12:18:29,15.08844783,0.0001427,53.2168,245.033,76.2113,283.9038,0.0003357,5.059e-05,0.0,0 STARLINK-3983,1 52618U 22052W   24163.51283913  .00005059  00000-0  33570-3 0  9991,2 52618  53.2168 245.0330 0001427  76.2113 283.9038 15.08844783114940,6917.866,95.437,540.718,538.744,0.0
52618.0,STARLINK-3983,PAYLOAD,2024-06-11 21:50:48,15.08840583,0.0001258,53.2156,243.2475,71.0623,289.0506,0.00016042,2.266e-05,0.0,0 STARLINK-3983,1 52618U 22052W   24163.91028051  .00002266  00000-0  16042-3 0  9997,2 52618  53.2156 243.2475 0001258  71.0623 289.0506 15.08840583115388,6917.879,95.438,540.614,538.873,0.0
52618.0,STARLINK-3983,PAYLOAD,2024-06-12 05:47:44,15.08834792,0.0001627,53.2172,241.7615,81.5189,278.5988,1.309e-05,-8e-07,0.0,0 STARLINK-3983,1 52618U 22052W   24164.24148543 -.00000080  00000-0  13090-4 0  9997,2 52618  53.2172 241.7615 0001627  81.5189 278.5988 15.08834792115054,6917.896,95.438,540.887,538.636,0.0
52618.0,STARLINK-3983,PAYLOAD,2024-06-12 12:09:16,15.08834208,0.0001444,53.2174,240.5765,94.0664,266.0493,-4.7274e-06,-3.63e-06,0.0,0 STARLINK-3983,1 52618U 22052W   24164.50644592 -.00000363  00000-0 -47274-5 0  9998,2 52618  53.2174 240.5765 0001444  94.0664 266.0493 15.08834208115474,6917.898,95.438,540.762,538.764,0.0
52618.0,STARLINK-3983,PAYLOAD,2024-06-13 12:00:03,15.08840473,0.0001322,53.2165,236.1152,95.0816,265.0327,2.5313e-05,1.15e-06,0.0,0 STARLINK-3983,1 52618U 22052W   24165.50004453  .00000115  00000-0  25313-4 0  9997,2 52618  53.2165 236.1152 0001322  95.0816 265.0327 15.08840473115241,6917.879,95.438,540.658,538.829,0.0
52618.0,STARLINK-3983,PAYLOAD,2024-06-14 13:26:14,15.08844172,0.0001268,53.2159,231.3561,94.3746,265.7391,0.0001951,2.819e-05,0.0,0 STARLINK-3983,1 52618U 22052W   24166.55988512  .00002819  00000-0  19510-3 0  9994,2 52618  53.2159 231.3561 0001268  94.3746 265.7391 15.08844172115404,6917.868,95.437,540.61,538.855,0.0
52618.0,STARLINK-3983,PAYLOAD,2024-06-15 13:17:00,15.08848727,0.0001335,53.2163,226.8933,87.4881,272.6264,0.00015591,2.195e-05,0.0,0 STARLINK-3983,1 52618U 22052W   24167.55348194  .00002195  00000-0  15591-3 0  9993,2 52618  53.2163 226.8933 0001335  87.4881 272.6264 15.08848727115551,6917.854,95.437,540.642,538.795,0.0
52618.0,STARLINK-3983,PAYLOAD,2024-06-15 21:13:56,15.0884501,0.000137,53.2166,225.4056,90.6482,269.4667,0.00011893,1.606e-05,0.0,0 STARLINK-3983,1 52618U 22052W   24167.88468325  .00001606  00000-0  11893-3 0  9995,2 52618  53.2166 225.4056 0001370  90.6482 269.4667 15.08845010115606,6917.865,95.437,540.678,538.782,0.0
52618.0,STARLINK-3983,PAYLOAD,2024-06-16 09:57:01,15.08842503,0.0001071,53.2154,223.0247,92.0557,268.0557,0.00015216,2.135e-05,0.0,0 STARLINK-3983,1 52618U 22052W   24168.41460265  .00002135  00000-0  15216-3 0  9991,2 52618  53.2154 223.0247 0001071  92.0557 268.0557 15.08842503115681,6917.873,95.437,540.479,538.997,0.0
52618.0,STARLINK-3983,PAYLOAD,2024-06-16 21:04:43,15.08840615,0.0001206,53.2149,220.9444,91.1142,268.9988,0.00015647,2.203e-05,0.0,0 STARLINK-3983,1 52618U 22052W   24168.87828347  .00002203  00000-0  15647-3 0  9994,2 52618  53.2149 220.9444 0001206  91.1142 268.9988 15.08840615115757,6917.879,95.438,540.578,538.909,0.0
52618.0,STARLINK-3983,PAYLOAD,2024-06-17 20:55:31,15.08839872,0.0001326,53.2167,216.4834,107.7057,252.408,-4.9753e-05,-1.08e-05,0.0,0 STARLINK-3983,1 52618U 22052W   24169.87188699 -.00001080  00000-0 -49753-4 0  9994,2 52618  53.2167 216.4834 0001326 107.7057 252.4080 15.08839872115903,6917.881,95.438,540.663,538.828,0.0
52618.0,STARLINK-3983,PAYLOAD,2024-06-18 09:38:36,15.08831908,0.0001249,53.2161,214.1051,96.6946,263.4188,0.00011887,1.604e-05,0.0,0 STARLINK-3983,1 52618U 22052W   24170.40180930  .00001604  00000-0  11887-3 0  9991,2 52618  53.2161 214.1051 0001249  96.6946 263.4188 15.08831908116364,6917.905,95.438,540.634,538.906,0.0
52618.0,STARLINK-3983,PAYLOAD,2024-06-19 09:29:23,15.08835307,0.0001213,53.2155,209.6455,91.5086,268.6045,6.2914e-05,7.13e-06,0.0,0 STARLINK-3983,1 52618U 22052W   24171.39541049  .00000713  00000-0  62914-4 0  9990,2 52618  53.2155 209.6455 0001213  91.5086 268.6045 15.08835307116135,6917.895,95.438,540.599,538.921,0.0
52618.0,STARLINK-3983,PAYLOAD,2024-06-20 12:30:56,15.08840976,0.0001269,53.2161,204.5909,89.8584,270.2553,7.3008e-05,8.74e-06,0.0,0 STARLINK-3983,1 52618U 22052W   24172.52148913  .00000874  00000-0  73008-4 0  9993,2 52618  53.2161 204.5909 0001269  89.8584 270.2553 15.08840976116304,6917.877,95.437,540.62,538.865,0.0
52618.0,STARLINK-3983,PAYLOAD,2024-06-21 09:10:57,15.08839312,0.000127,53.2161,200.7249,88.6685,271.4452,5.3186e-05,5.59e-06,0.0,0 STARLINK-3983,1 52618U 22052W   24173.38261181  .00000559  00000-0  53186-4 0  9996,2 52618  53.2161 200.7249 0001270  88.6685 271.4452 15.08839312116437,6917.882,95.438,540.626,538.869,0.0
52618.0,STARLINK-3983,PAYLOAD,2024-06-22 10:37:08,15.08839093,0.0001288,53.2162,195.9671,87.0097,273.1043,1.9092e-05,1.6e-07,0.0,0 STARLINK-3983,1 52618U 22052W   24174.44245431  .00000016  00000-0  19092-4 0  9990,2 52618  53.2162 195.9671 0001288  87.0097 273.1043 15.08839093116971,6917.883,95.438,540.639,538.857,0.0
52618.0,STARLINK-3983,PAYLOAD,2024-06-23 08:52:31,15.08840571,0.0001357,53.2165,191.804,83.4419,276.6728,5.3558e-05,5.65e-06,0.0,0 STARLINK-3983,1 52618U 22052W   24175.36981291  .00000565  00000-0  53558-4 0  9997,2 52618  53.2165 191.8040 0001357  83.4419 276.6728 15.08840571116739,6917.879,95.438,540.682,538.805,0.0
52618.0,STARLINK-3983,PAYLOAD,2024-06-24 10:18:41,15.08844545,0.0001318,53.2162,187.0459,84.7777,275.3365,8.5119e-05,1.067e-05,0.0,0 STARLINK-3983,1 52618U 22052W   24176.42964794  .00001067  00000-0  85119-4 0  9990,2 52618  53.2162 187.0459 0001318  84.7777 275.3365 15.08844545117273,6917.866,95.437,540.643,538.82,0.0
52618.0,STARLINK-3983,PAYLOAD,2024-06-25 03:47:56,15.08837531,0.0001276,53.2157,183.7728,94.3642,265.7496,-1.917e-05,-5.93e-06,0.0,0 STARLINK-3983,1 52618U 22052W   24177.15829491 -.00000593  00000-0 -19170-4 0  9994,2 52618  53.2157 183.7728 0001276  94.3642 265.7496 15.08837531117387,6917.888,95.438,540.636,538.87,0.0
52618.0,STARLINK-3983,PAYLOAD,2024-06-25 06:58:42,15.08838064,0.000133,53.2158,183.1784,89.5517,270.5627,-1.3522e-05,-5.03e-06,0.0,0 STARLINK-3983,1 52618U 22052W   24177.29077472 -.00000503  00000-0 -13522-4 0  9999,2 52618  53.2158 183.1784 0001330  89.5517 270.5627 15.08838064117025,6917.886,95.438,540.671,538.831,0.0
52618.0,STARLINK-3983,PAYLOAD,2024-06-26 06:49:29,15.0884231,0.0001337,53.2156,178.7139,93.6896,266.4249,5.9411e-05,6.58e-06,0.0,0 STARLINK-3983,1 52618U 22052W   24178.28436851  .00000658  00000-0  59411-4 0  9995,2 52618  53.2156 178.7139 0001337  93.6896 266.4249 15.08842310117551,6917.873,95.437,540.663,538.813,0.0
52618.0,STARLINK-3983,PAYLOAD,2024-06-27 05:04:53,15.08838168,0.0001342,53.2155,174.5554,92.1093,268.0053,5.4518e-05,5.8e-06,0.0,0 STARLINK-3983,1 52618U 22052W   24179.21173292  .00000580  00000-0  54518-4 0  9993,2 52618  53.2155 174.5554 0001342  92.1093 268.0053 15.08838168117696,6917.886,95.438,540.679,538.823,0.0
52618.0,STARLINK-3983,PAYLOAD,2024-06-27 16:12:35,15.08836994,0.000136,53.2156,172.475,91.0889,269.0259,2.2301e-05,6.7e-07,0.0,0 STARLINK-3983,1 52618U 22052W   24179.67541550  .00000067  00000-0  22301-4 0  9994,2 52618  53.2156 172.4750 0001360  91.0889 269.0259 15.08836994117383,6917.89,95.438,540.695,538.814,0.0
52618.0,STARLINK-3983,PAYLOAD,2024-06-28 06:31:04,15.08836232,0.0001417,53.2158,169.8004,98.5921,261.5232,9.1192e-08,-2.86e-06,0.0,0 STARLINK-3983,1 52618U 22052W   24180.27157834 -.00000286  00000-0  91192-7 0  9991,2 52618  53.2158 169.8004 0001417  98.5921 261.5232 15.08836232117854,6917.892,95.438,540.737,538.777,0.0
52618.0,STARLINK-3983,PAYLOAD,2024-06-29 07:57:14,15.08838909,0.0001352,53.2157,165.0423,97.7891,262.3255,6.1904e-05,6.97e-06,0.0,0 STARLINK-3983,1 52618U 22052W   24181.33141790  .00000697  00000-0  61904-4 0  9993,2 52618  53.2157 165.0423 0001352  97.7891 262.3255 15.08838909118017,6917.884,95.438,540.684,538.813,0.0
52618.0,STARLINK-3983,PAYLOAD,2024-06-30 07:48:01,15.08838347,0.0001318,53.2155,160.5806,92.7511,267.3632,7.7322e-05,9.43e-06,0.0,0 STARLINK-3983,1 52618U 22052W   24182.32502093  .00000943  00000-0  77322-4 0  9995,2 52618  53.2155 160.5806 0001318  92.7511 267.3632 15.08838347117789,6917.885,95.438,540.662,538.839,0.0
52618.0,STARLINK-3983,PAYLOAD,2024-06-30 15:44:57,15.08838368,0.0001393,53.2163,159.0929,89.3354,270.7798,9.0328e-05,1.15e-05,0.0,0 STARLINK-3983,1 52618U 22052W   24182.65622124  .00001150  00000-0  90328-4 0  9991,2 52618  53.2163 159.0929 0001393  89.3354 270.7798 15.08838368118210,6917.885,95.438,540.714,538.787,0.0
52618.0,STARLINK-3983,PAYLOAD,2024-07-01 07:38:48,15.0884712,0.0001328,53.2159,156.1182,93.0848,267.0296,0.0001068,1.413e-05,0.0,0 STARLINK-3983,1 52618U 22052W   24183.31861488  .00001413  00000-0  10680-3 0  9997,2 52618  53.2159 156.1182 0001328  93.0848 267.0296 15.08847120118311,6917.859,95.437,540.642,538.805,0.0
52618.0,STARLINK-3983,PAYLOAD,2024-07-02 04:18:49,15.08837881,0.0001351,53.2156,152.2524,92.5225,267.5922,1.8217e-05,2e-08,0.0,0 STARLINK-3983,1 52618U 22052W   24184.17974412  .00000002  00000-0  18217-4 0  9992,2 52618  53.2156 152.2524 0001351  92.5225 267.5922 15.08837881118442,6917.887,95.438,540.686,538.817,0.0
52618.0,STARLINK-3983,PAYLOAD,2024-07-02 07:29:35,15.08840384,0.0001312,53.2155,151.657,93.4001,266.7141,3.3801e-05,2.5e-06,0.0,0 STARLINK-3983,1 52618U 22052W   24184.31222195  .00000250  00000-0  33801-4 0  9993,2 52618  53.2155 151.6570 0001312  93.4001 266.7141 15.08840384118080,6917.879,95.438,540.652,538.837,0.0
